[
  {
    "OBJECT_NAME": "STARLINK-35622",
    "OBJECT_ID": "25236T",
    "EPOCH": "2025-11-11T06:00:02.000160",
    "MEAN_MOTION": 15.64314954,
    "ECCENTRICITY": 0.0001402,
    "INCLINATION": 53.1592,
    "RA_OF_ASC_NODE": 296.4822,
    "ARG_OF_PERICENTER": 75.533,
    "MEAN_ANOMALY": 20.9165,
    "EPHEMERIS_TYPE": 0,
    "CLASSIFICATION_TYPE": "U",
    "NORAD_CAT_ID": 66103,
    "ELEMENT_SET_NO": 999,
    "REV_AT_EPOCH": 481,
    "BSTAR": 0.0,
    "MEAN_MOTION_DOT": -0.02019891,
    "MEAN_MOTION_DDOT": 0.0,
    "TLE_LINE1": "1 66103U 25236T   25315.25002315 -.02019891  00000+0 -23614-1 0  9996",
    "TLE_LINE2": "2 66103  53.1592 296.4822 0001402  75.5330  20.9165 15.64314954  4814",
    "COMMENT": "Grouped by shell and plane from TLE"
  },
  {
    "OBJECT_NAME": "STARLINK-35452",
    "OBJECT_ID": "25236U",
    "EPOCH": "2025-11-11T06:00:02.000160",
    "MEAN_MOTION": 15.64313148,
    "ECCENTRICITY": 0.0001446,
    "INCLINATION": 53.159,
    "RA_OF_ASC_NODE": 296.4859,
    "ARG_OF_PERICENTER": 74.7262,
    "MEAN_ANOMALY": 19.8076,
    "EPHEMERIS_TYPE": 0,
    "CLASSIFICATION_TYPE": "U",
    "NORAD_CAT_ID": 66104,
    "ELEMENT_SET_NO": 999,
    "REV_AT_EPOCH": 481,
    "BSTAR": 0.0,
    "MEAN_MOTION_DOT": -0.02018218,
    "MEAN_MOTION_DDOT": 0.0,
    "TLE_LINE1": "1 66104U 25236U   25315.25002315 -.02018218  00000+0 -23593-1 0  9995",
    "TLE_LINE2": "2 66104  53.1590 296.4859 0001446  74.7262  19.8076 15.64313148  4818",
    "COMMENT": "Grouped by shell and plane from TLE"
  },
  {
    "OBJECT_NAME": "STARLINK-35561",
    "OBJECT_ID": "25236V",
    "EPOCH": "2025-11-11T06:00:02.000160",
    "MEAN_MOTION": 15.64315702,
    "ECCENTRICITY": 0.0001442,
    "INCLINATION": 53.1592,
    "RA_OF_ASC_NODE": 296.4784,
    "ARG_OF_PERICENTER": 80.7163,
    "MEAN_ANOMALY": 17.6522,
    "EPHEMERIS_TYPE": 0,
    "CLASSIFICATION_TYPE": "U",
    "NORAD_CAT_ID": 66105,
    "ELEMENT_SET_NO": 999,
    "REV_AT_EPOCH": 475,
    "BSTAR": 0.0,
    "MEAN_MOTION_DOT": -0.02024202,
    "MEAN_MOTION_DDOT": 0.0,
    "TLE_LINE1": "1 66105U 25236V   25315.25002315 -.02024202  00000+0 -23671-1 0  9993",
    "TLE_LINE2": "2 66105  53.1592 296.4784 0001442  80.7163  17.6522 15.64315702  4754",
    "COMMENT": "Grouped by shell and plane from TLE"
  },
  {
    "OBJECT_NAME": "STARLINK-35584",
    "OBJECT_ID": "25236W",
    "EPOCH": "2025-11-11T06:00:02.000160",
    "MEAN_MOTION": 15.64314126,
    "ECCENTRICITY": 0.0001478,
    "INCLINATION": 53.1593,
    "RA_OF_ASC_NODE": 296.4732,
    "ARG_OF_PERICENTER": 77.9527,
    "MEAN_ANOMALY": 22.3325,
    "EPHEMERIS_TYPE": 0,
    "CLASSIFICATION_TYPE": "U",
    "NORAD_CAT_ID": 66106,
    "ELEMENT_SET_NO": 999,
    "REV_AT_EPOCH": 481,
    "BSTAR": 0.0,
    "MEAN_MOTION_DOT": -0.02021287,
    "MEAN_MOTION_DDOT": 0.0,
    "TLE_LINE1": "1 66106U 25236W   25315.25002315 -.02021287  00000+0 -23633-1 0  9992",
    "TLE_LINE2": "2 66106  53.1593 296.4732 0001478  77.9527  22.3325 15.64314126  4810",
    "COMMENT": "Grouped by shell and plane from TLE"
  },
  {
    "OBJECT_NAME": "STARLINK-35593",
    "OBJECT_ID": "25236X",
    "EPOCH": "2025-11-11T06:00:02.000160",
    "MEAN_MOTION": 15.64313805,
    "ECCENTRICITY": 0.0001388,
    "INCLINATION": 53.1592,
    "RA_OF_ASC_NODE": 296.4693,
    "ARG_OF_PERICENTER": 77.9379,
    "MEAN_ANOMALY": 24.2651,
    "EPHEMERIS_TYPE": 0,
    "CLASSIFICATION_TYPE": "U",
    "NORAD_CAT_ID": 66107,
    "ELEMENT_SET_NO": 999,
    "REV_AT_EPOCH": 481,
    "BSTAR": 0.0,
    "MEAN_MOTION_DOT": -0.02020482,
    "MEAN_MOTION_DDOT": 0.0,
    "TLE_LINE1": "1 66107U 25236X   25315.25002315 -.02020482  00000+0 -23623-1 0  9998",
    "TLE_LINE2": "2 66107  53.1592 296.4693 0001388  77.9379  24.2651 15.64313805  4817",
    "COMMENT": "Grouped by shell and plane from TLE"
  },
  {
    "OBJECT_NAME": "STARLINK-35590",
    "OBJECT_ID": "25236Y",
    "EPOCH": "2025-11-11T06:00:02.000160",
    "MEAN_MOTION": 15.64314507,
    "ECCENTRICITY": 0.0001477,
    "INCLINATION": 53.1592,
    "RA_OF_ASC_NODE": 296.4617,
    "ARG_OF_PERICENTER": 79.9372,
    "MEAN_ANOMALY": 26.0993,
    "EPHEMERIS_TYPE": 0,
    "CLASSIFICATION_TYPE": "U",
    "NORAD_CAT_ID": 66108,
    "ELEMENT_SET_NO": 999,
    "REV_AT_EPOCH": 475,
    "BSTAR": 0.0,
    "MEAN_MOTION_DOT": -0.02022702,
    "MEAN_MOTION_DDOT": 0.0,
    "TLE_LINE1": "1 66108U 25236Y   25315.25002315 -.02022702  00000+0 -23651-1 0  9997",
    "TLE_LINE2": "2 66108  53.1592 296.4617 0001477  79.9372  26.0993 15.64314507  4750",
    "COMMENT": "Grouped by shell and plane from TLE"
  },
  {
    "OBJECT_NAME": "STARLINK-35545",
    "OBJECT_ID": "25236Z",
    "EPOCH": "2025-11-11T06:00:02.000160",
    "MEAN_MOTION": 15.64316666,
    "ECCENTRICITY": 0.0001398,
    "INCLINATION": 53.1593,
    "RA_OF_ASC_NODE": 296.4654,
    "ARG_OF_PERICENTER": 78.1697,
    "MEAN_ANOMALY": 25.9496,
    "EPHEMERIS_TYPE": 0,
    "CLASSIFICATION_TYPE": "U",
    "NORAD_CAT_ID": 66109,
    "ELEMENT_SET_NO": 999,
    "REV_AT_EPOCH": 481,
    "BSTAR": 0.0,
    "MEAN_MOTION_DOT": -0.02025266,
    "MEAN_MOTION_DDOT": 0.0,
    "TLE_LINE1": "1 66109U 25236Z   25315.25002315 -.02025266  00000+0 -23684-1 0  9992",
    "TLE_LINE2": "2 66109  53.1593 296.4654 0001398  78.1697  25.9496 15.64316666  4817",
    "COMMENT": "Grouped by shell and plane from TLE"
  },
  {
    "OBJECT_NAME": "STARLINK-35427",
    "OBJECT_ID": "25236AA",
    "EPOCH": "2025-11-11T06:00:02.000160",
    "MEAN_MOTION": 15.64316952,
    "ECCENTRICITY": 0.0001413,
    "INCLINATION": 53.1593,
    "RA_OF_ASC_NODE": 296.4571,
    "ARG_OF_PERICENTER": 74.1854,
    "MEAN_ANOMALY": 33.766,
    "EPHEMERIS_TYPE": 0,
    "CLASSIFICATION_TYPE": "U",
    "NORAD_CAT_ID": 66110,
    "ELEMENT_SET_NO": 999,
    "REV_AT_EPOCH": 481,
    "BSTAR": 0.0,
    "MEAN_MOTION_DOT": -0.02023888,
    "MEAN_MOTION_DDOT": 0.0,
    "TLE_LINE1": "1 66110U 25236AA  25315.25002315 -.02023888  00000+0 -23665-1 0  9991",
    "TLE_LINE2": "2 66110  53.1593 296.4571 0001413  74.1854  33.7660 15.64316952  4814",
    "COMMENT": "Grouped by shell and plane from TLE"
  },
  {
    "OBJECT_NAME": "STARLINK-35574",
    "OBJECT_ID": "25236AB",
    "EPOCH": "2025-11-11T06:00:02.000160",
    "MEAN_MOTION": 15.64318376,
    "ECCENTRICITY": 0.0001376,
    "INCLINATION": 53.1594,
    "RA_OF_ASC_NODE": 296.4536,
    "ARG_OF_PERICENTER": 83.1752,
    "MEAN_ANOMALY": 26.6918,
    "EPHEMERIS_TYPE": 0,
    "CLASSIFICATION_TYPE": "U",
    "NORAD_CAT_ID": 66111,
    "ELEMENT_SET_NO": 999,
    "REV_AT_EPOCH": 475,
    "BSTAR": 0.0,
    "MEAN_MOTION_DOT": -0.02025215,
    "MEAN_MOTION_DDOT": 0.0,
    "TLE_LINE1": "1 66111U 25236AB  25315.25002315 -.02025215  00000+0 -23682-1 0  9997",
    "TLE_LINE2": "2 66111  53.1594 296.4536 0001376  83.1752  26.6918 15.64318376  4754",
    "COMMENT": "Grouped by shell and plane from TLE"
  },
  {
    "OBJECT_NAME": "STARLINK-35531",
    "OBJECT_ID": "25236AC",
    "EPOCH": "2025-11-11T06:00:02.000160",
    "MEAN_MOTION": 15.64318258,
    "ECCENTRICITY": 0.0001437,
    "INCLINATION": 53.1589,
    "RA_OF_ASC_NODE": 296.4453,
    "ARG_OF_PERICENTER": 77.7968,
    "MEAN_ANOMALY": 35.9045,
    "EPHEMERIS_TYPE": 0,
    "CLASSIFICATION_TYPE": "U",
    "NORAD_CAT_ID": 66112,
    "ELEMENT_SET_NO": 999,
    "REV_AT_EPOCH": 481,
    "BSTAR": 0.0,
    "MEAN_MOTION_DOT": -0.02025701,
    "MEAN_MOTION_DDOT": 0.0,
    "TLE_LINE1": "1 66112U 25236AC  25315.25002315 -.02025701  00000+0 -23688-1 0  9994",
    "TLE_LINE2": "2 66112  53.1589 296.4453 0001437  77.7968  35.9045 15.64318258  4813",
    "COMMENT": "Grouped by shell and plane from TLE"
  },
  {
    "OBJECT_NAME": "STARLINK-35491",
    "OBJECT_ID": "25236AD",
    "EPOCH": "2025-11-11T06:00:02.000160",
    "MEAN_MOTION": 15.64316286,
    "ECCENTRICITY": 0.0001445,
    "INCLINATION": 53.1591,
    "RA_OF_ASC_NODE": 296.4495,
    "ARG_OF_PERICENTER": 78.2655,
    "MEAN_ANOMALY": 33.5209,
    "EPHEMERIS_TYPE": 0,
    "CLASSIFICATION_TYPE": "U",
    "NORAD_CAT_ID": 66113,
    "ELEMENT_SET_NO": 999,
    "REV_AT_EPOCH": 481,
    "BSTAR": 0.0,
    "MEAN_MOTION_DOT": -0.02024134,
    "MEAN_MOTION_DDOT": 0.0,
    "TLE_LINE1": "1 66113U 25236AD  25315.25002315 -.02024134  00000+0 -23669-1 0  9993",
    "TLE_LINE2": "2 66113  53.1591 296.4495 0001445  78.2655  33.5209 15.64316286  4816",
    "COMMENT": "Grouped by shell and plane from TLE"
  }
]